OBJECT_NAME,OBJECT_ID,EPOCH,MEAN_MOTION,ECCENTRICITY,INCLINATION,RA_OF_ASC_NODE,ARG_OF_PERICENTER,MEAN_ANOMALY,EPHEMERIS_TYPE,CLASSIFICATION_TYPE,NORAD_CAT_ID,ELEMENT_SET_NO,REV_AT_EPOCH,BSTAR,MEAN_MOTION_DOT,MEAN_MOTION_DDOT
STARLINK-37927,2026-135L,2026-07-09T07:16:28.824960,15.71196688,.00013658,97.2843,218.5918,349.3579,10.7655,0,U,69556,999,375,-.5852053E-2,-.68015E-2,0
STARLINK-37929,2026-135M,2026-07-09T06:00:02.000160,15.65990489,.00012604,97.2845,218.5205,61.8098,324.7130,0,U,69557,999,485,-.29510568E-1,-.2607386E-1,0
STARLINK-37954,2026-135N,2026-07-09T06:00:02.000160,15.65953899,.00010625,97.2850,218.5271,73.2888,318.6734,0,U,69558,999,485,-.28126351E-1,-.2497575E-1,0
STARLINK-37958,2026-135P,2026-07-07T10:57:14.517792,15.81197842,.00008161,97.2854,216.6654,105.5963,254.5396,0,U,69559,999,346,.18839808E-2,.383711E-2,0
STARLINK-37950,2026-135Q,2026-07-09T00:56:09.631968,15.80907766,.00016027,97.2844,218.3394,110.3509,249.7932,0,U,69560,999,371,.96177354E-3,.188918E-2,0
STARLINK-37952,2026-135R,2026-07-09T06:00:02.000160,15.70452811,.00015055,97.2845,218.5532,61.2332,30.7789,0,U,69561,999,485,-.23295858E-1,-.2490768E-1,0
STARLINK-37935,2026-135S,2026-07-09T06:00:02.000160,15.65112217,.0001122,97.2841,218.5356,72.1963,338.6690,0,U,69562,999,485,-.29187949E-1,-.2504613E-1,0
STARLINK-37936,2026-135T,2026-07-09T06:00:02.000160,15.66931661,.00019921,97.2847,218.5572,58.1370,49.3246,0,U,69563,999,485,-.26741921E-1,-.2475003E-1,0
STARLINK-37932,2026-135U,2026-07-08T14:04:08.405760,15.80893645,.00015848,97.2839,217.8870,53.5074,306.6340,0,U,69564,999,364,.14234719E-2,.282538E-2,0
STARLINK-37916,2026-135V,2026-07-09T06:47:47.647968,15.77911820,.00016663,97.2856,218.6193,43.6806,316.4592,0,U,69565,999,375,-.64167614E-2,-.964977E-2,0
STARLINK-37909,2026-135W,2026-07-09T02:03:28.811232,15.80810139,.00010777,97.2836,218.4303,30.9617,329.1715,0,U,69566,999,372,.29860727E-3,.57417E-3,0
STARLINK-37934,2026-135X,2026-07-07T10:38:05.764992,15.81011723,.00032614,97.2845,216.6838,125.2579,234.8995,0,U,69567,999,346,.14681327E-2,.293381E-2,0
STARLINK-37938,2026-135Y,2026-07-09T06:00:02.000160,15.65459945,.00016928,97.2846,218.5713,64.1190,69.1669,0,U,69568,999,485,-.29108201E-1,-.2529761E-1,0
STARLINK-37924,2026-135Z,2026-07-09T06:00:02.000160,15.75385366,.00018918,97.2846,218.6019,80.7778,135.1613,0,U,69569,999,485,-.19990236E-1,-.2621929E-1,0
STARLINK-37656,2026-143A,2026-07-09T06:00:02.000160,15.49200548,.00008973,97.2856,234.0773,86.7766,139.8782,0,U,69649,999,400,-.31048598E-3,-.16947E-3,0
STARLINK-37646,2026-143B,2026-07-09T06:00:02.000160,15.62898870,.00017518,97.2845,234.2271,76.0394,133.2427,0,U,69650,999,400,-.22904203E-1,-.1837061E-1,0
STARLINK-37749,2026-143C,2026-07-09T06:00:02.000160,15.59952126,.00019836,97.2848,234.2227,69.9177,131.3208,0,U,69651,999,400,-.35706487E-1,-.2503654E-1,0
STARLINK-37819,2026-143D,2026-07-09T06:00:02.000160,15.57379917,.00011464,97.2849,234.1941,63.6124,77.7539,0,U,69652,999,400,-.12373788E-1,-.82918E-2,0
STARLINK-37729,2026-143E,2026-07-09T01:24:23.674176,15.82348664,.00011522,97.2838,234.0894,187.5673,172.5579,0,U,69653,999,394,.13893392E-2,.295257E-2,0
STARLINK-37838,2026-143F,2026-07-09T06:00:02.000160,15.65640084,.00015678,97.2845,234.2406,84.8417,168.9393,0,U,69654,999,400,-.30243458E-1,-.2631227E-1,0
STARLINK-37884,2026-143G,2026-07-09T06:00:02.000160,15.52882820,.00021286,97.2855,234.1902,73.5293,50.1861,0,U,69655,999,400,-.44157797E-1,-.239375E-1,0
STARLINK-37876,2026-143H,2026-07-09T06:00:02.000160,15.64056455,.00018105,97.2850,234.2506,82.1456,184.0591,0,U,69656,999,390,-.30900554E-1,-.2537963E-1,0
STARLINK-37784,2026-143J,2026-07-09T06:00:02.000160,15.56747896,.00018967,97.2857,234.2014,59.6546,91.3415,0,U,69657,999,390,-.38920178E-1,-.2427822E-1,0
STARLINK-37851,2026-143K,2026-07-09T06:00:02.000160,15.62174318,.00018074,97.2851,234.2517,96.2952,174.3536,0,U,69658,999,389,-.33101235E-1,-.2526105E-1,0
STARLINK-37229,2026-143L,2026-07-09T06:00:02.000160,15.59186994,.00017574,97.2850,234.2158,68.2657,116.9719,0,U,69659,999,394,-.37776559E-1,-.2562709E-1,0
STARLINK-37556,2026-143M,2026-07-09T06:00:02.000160,15.62685232,.00018045,97.2846,234.2274,87.0707,135.3276,0,U,69660,999,394,-.33893564E-1,-.262328E-1,0
STARLINK-37867,2026-143N,2026-07-09T06:00:02.000160,15.62099919,.00018791,97.2854,234.2523,84.2469,185.4836,0,U,69661,999,390,-.33231857E-1,-.2528438E-1,0
STARLINK-37852,2026-143P,2026-07-09T06:00:02.000160,15.55687726,.00012403,97.2851,234.1859,76.2341,48.5340,0,U,69662,999,390,-.1377695E-1,-.863717E-2,0
STARLINK-37554,2026-143Q,2026-07-09T06:00:02.000160,15.60284732,.00020526,97.2852,234.2329,81.0335,145.6258,0,U,69663,999,394,-.34845313E-1,-.2478578E-1,0
STARLINK-37830,2026-143R,2026-07-09T06:00:02.000160,15.56679010,.00021285,97.2853,234.2064,65.0884,103.1869,0,U,69664,999,390,-.40499006E-1,-.250775E-1,0
